{
  "type": "FeatureCollection",
  "features": [
    {
      "type": "Feature",
      "properties": {
        "norad_id": 66446,
        "name": "STARLINK-34986",
        "group": "last-30-days",
        "lat": 41.15029742032414,
        "lon": -141.21990890978324,
        "alt_km": 410.61697037841805,
        "timestamp": "2025-12-02T06:27:51.800933+00:00",
        "meta_object_name": "STARLINK-34986",
        "meta_object_id": "2025-259AA",
        "meta_epoch": "2025-12-01T20:00:01.999008",
        "meta_mean_motion": 15.5142572,
        "meta_eccentricity": 0.0001245,
        "meta_inclination": 42.9996,
        "meta_ra_of_asc_node": 111.022,
        "meta_arg_of_pericenter": 272.484,
        "meta_mean_anomaly": 275.6056,
        "meta_ephemeris_type": 0,
        "meta_classification_type": "U",
        "meta_norad_cat_id": 66446,
        "meta_element_set_no": 999,
        "meta_rev_at_epoch": 452,
        "meta_bstar": -0.023443,
        "meta_mean_motion_dot": -0.01283317,
        "meta_mean_motion_ddot": 0,
        "tle_line1": "1 66446U 25259AA  25335.83335647 -.01283317  00000+0 -23443-1 0  9999",
        "tle_line2": "2 66446  42.9996 111.0220 0001245 272.4840 275.6056 15.51425720  4527"
      },
      "geometry": {
        "type": "Point",
        "coordinates": [
          -141.21990890978324,
          41.15029742032414
        ]
      }
    },
    {
      "type": "Feature",
      "properties": {
        "norad_id": 66447,
        "name": "STARLINK-34851",
        "group": "last-30-days",
        "lat": 40.12428141856301,
        "lon": -136.28837805961294,
        "alt_km": 410.89099187285046,
        "timestamp": "2025-12-02T06:27:51.800943+00:00",
        "meta_object_name": "STARLINK-34851",
        "meta_object_id": "2025-259AB",
        "meta_epoch": "2025-12-01T20:00:01.999008",
        "meta_mean_motion": 15.51397152,
        "meta_eccentricity": 0.0001816,
        "meta_inclination": 42.9996,
        "meta_ra_of_asc_node": 111.0134,
        "meta_arg_of_pericenter": 279.7523,
        "meta_mean_anomaly": 272.169,
        "meta_ephemeris_type": 0,
        "meta_classification_type": "U",
        "meta_norad_cat_id": 66447,
        "meta_element_set_no": 999,
        "meta_rev_at_epoch": 441,
        "meta_bstar": -0.021135,
        "meta_mean_motion_dot": -0.01149554,
        "meta_mean_motion_ddot": 0,
        "tle_line1": "1 66447U 25259AB  25335.83335647 -.01149554  00000+0 -21135-1 0  9990",
        "tle_line2": "2 66447  42.9996 111.0134 0001816 279.7523 272.1690 15.51397152  4415"
      },
      "geometry": {
        "type": "Point",
        "coordinates": [
          -136.28837805961294,
          40.12428141856301
        ]
      }
    },
    {
      "type": "Feature",
      "properties": {
        "norad_id": 66448,
        "name": "STARLINK-35355",
        "group": "last-30-days",
        "lat": 39.55824216316395,
        "lon": -133.9773577593073,
        "alt_km": 410.9830632663907,
        "timestamp": "2025-12-02T06:27:51.800953+00:00",
        "meta_object_name": "STARLINK-35355",
        "meta_object_id": "2025-259AC",
        "meta_epoch": "2025-12-01T20:00:01.999008",
        "meta_mean_motion": 15.51422652,
        "meta_eccentricity": 0.0001343,
        "meta_inclination": 42.9994,
        "meta_ra_of_asc_node": 111.0082,
        "meta_arg_of_pericenter": 277.738,
        "meta_mean_anomaly": 276.1122,
        "meta_ephemeris_type": 0,
        "meta_classification_type": "U",
        "meta_norad_cat_id": 66448,
        "meta_element_set_no": 999,
        "meta_rev_at_epoch": 452,
        "meta_bstar": -0.023719,
        "meta_mean_motion_dot": -0.01296858,
        "meta_mean_motion_ddot": 0,
        "tle_line1": "1 66448U 25259AC  25335.83335647 -.01296858  00000+0 -23719-1 0  9991",
        "tle_line2": "2 66448  42.9994 111.0082 0001343 277.7380 276.1122 15.51422652  4520"
      },
      "geometry": {
        "type": "Point",
        "coordinates": [
          -133.9773577593073,
          39.55824216316395
        ]
      }
    },
    {
      "type": "Feature",
      "properties": {
        "norad_id": 66449,
        "name": "STARLINK-34720",
        "group": "last-30-days",
        "lat": 38.92878301807606,
        "lon": -131.6403596157486,
        "alt_km": 410.93904030259,
        "timestamp": "2025-12-02T06:27:51.800963+00:00",
        "meta_object_name": "STARLINK-34720",
        "meta_object_id": "2025-259AD",
        "meta_epoch": "2025-12-01T20:00:01.999008",
        "meta_mean_motion": 15.51423851,
        "meta_eccentricity": 0.0001186,
        "meta_inclination": 42.9993,
        "meta_ra_of_asc_node": 111.0029,
        "meta_arg_of_pericenter": 274.4324,
        "meta_mean_anomaly": 281.331,
        "meta_ephemeris_type": 0,
        "meta_classification_type": "U",
        "meta_norad_cat_id": 66449,
        "meta_element_set_no": 999,
        "meta_rev_at_epoch": 441,
        "meta_bstar": -0.023628,
        "meta_mean_motion_dot": -0.01292355,
        "meta_mean_motion_ddot": 0,
        "tle_line1": "1 66449U 25259AD  25335.83335647 -.01292355  00000+0 -23628-1 0  9999",
        "tle_line2": "2 66449  42.9993 111.0029 0001186 274.4324 281.3310 15.51423851  4415"
      },
      "geometry": {
        "type": "Point",
        "coordinates": [
          -131.6403596157486,
          38.92878301807606
        ]
      }
    },
    {
      "type": "Feature",
      "properties": {
        "norad_id": 66450,
        "name": "STARLINK-35334",
        "group": "last-30-days",
        "lat": 38.25489645128192,
        "lon": -129.3506793832986,
        "alt_km": 411.05032756632227,
        "timestamp": "2025-12-02T06:27:51.800975+00:00",
        "meta_object_name": "STARLINK-35334",
        "meta_object_id": "2025-259AE",
        "meta_epoch": "2025-12-01T20:00:01.999008",
        "meta_mean_motion": 15.51416397,
        "meta_eccentricity": 0.0001201,
        "meta_inclination": 42.9994,
        "meta_ra_of_asc_node": 110.9973,
        "meta_arg_of_pericenter": 275.6896,
        "meta_mean_anomaly": 281.9934,
        "meta_ephemeris_type": 0,
        "meta_classification_type": "U",
        "meta_norad_cat_id": 66450,
        "meta_element_set_no": 999,
        "meta_rev_at_epoch": 452,
        "meta_bstar": -0.023481,
        "meta_mean_motion_dot": -0.01284751,
        "meta_mean_motion_ddot": 0,
        "tle_line1": "1 66450U 25259AE  25335.83335647 -.01284751  00000+0 -23481-1 0  9999",
        "tle_line2": "2 66450  42.9994 110.9973 0001201 275.6896 281.9934 15.51416397  4526"
      },
      "geometry": {
        "type": "Point",
        "coordinates": [
          -129.3506793832986,
          38.25489645128192
        ]
      }
    },
    {
      "type": "Feature",
      "properties": {
        "norad_id": 66454,
        "name": "VIASAT-3 F2",
        "group": "last-30-days",
        "lat": 1.0411807031747682,
        "lon": -55.98178300277108,
        "alt_km": 23625.418180191402,
        "timestamp": "2025-12-02T06:27:51.800989+00:00",
        "meta_object_name": "VIASAT-3 F2",
        "meta_object_id": "2025-261A",
        "meta_epoch": "2025-11-26T17:55:45.153696",
        "meta_mean_motion": 2.28187844,
        "meta_eccentricity": 0.23413249,
        "meta_inclination": 5.5832,
        "meta_ra_of_asc_node": 293.8608,
        "meta_arg_of_pericenter": 182.7714,
        "meta_mean_anomaly": 334.4159,
        "meta_ephemeris_type": 0,
        "meta_classification_type": "U",
        "meta_norad_cat_id": 66454,
        "meta_element_set_no": 999,
        "meta_rev_at_epoch": 28,
        "meta_bstar": 0,
        "meta_mean_motion_dot": -5.1e-07,
        "meta_mean_motion_ddot": 0,
        "tle_line1": "1 66454U 25261A   25330.74705039 -.00000051  00000+0  00000+0 0  9994",
        "tle_line2": "2 66454   5.5832 293.8608 2341324 182.7714 334.4159  2.28187844   288"
      },
      "geometry": {
        "type": "Point",
        "coordinates": [
          -55.98178300277108,
          1.0411807031747682
        ]
      }
    },
    {
      "type": "Feature",
      "properties": {
        "norad_id": 66455,
        "name": "ATLAS 5 CENTAUR R/B",
        "group": "last-30-days",
        "lat": 0.525197980380249,
        "lon": -62.473675307038214,
        "alt_km": 23658.830070677817,
        "timestamp": "2025-12-02T06:27:51.801001+00:00",
        "meta_object_name": "ATLAS 5 CENTAUR R/B",
        "meta_object_id": "2025-261B",
        "meta_epoch": "2025-12-01T09:05:22.267680",
        "meta_mean_motion": 2.28259456,
        "meta_eccentricity": 0.2329758,
        "meta_inclination": 6.1608,
        "meta_ra_of_asc_node": 292.7524,
        "meta_arg_of_pericenter": 184.1992,
        "meta_mean_anomaly": 169.0341,
        "meta_ephemeris_type": 0,
        "meta_classification_type": "U",
        "meta_norad_cat_id": 66455,
        "meta_element_set_no": 999,
        "meta_rev_at_epoch": 38,
        "meta_bstar": 0,
        "meta_mean_motion_dot": -4.6e-07,
        "meta_mean_motion_ddot": 0,
        "tle_line1": "1 66455U 25261B   25335.37872995 -.00000046  00000+0  00000+0 0  9999",
        "tle_line2": "2 66455   6.1608 292.7524 2329758 184.1992 169.0341  2.28259456   388"
      },
      "geometry": {
        "type": "Point",
        "coordinates": [
          -62.473675307038214,
          0.525197980380249
        ]
      }
    }
  ]
}